[{"OBJECT_NAME":"IRIDIUM 168","OBJECT_ID":"2019-002C","EPOCH":"2026-03-09T22:03:03.105216","MEAN_MOTION":14.34216679,"ECCENTRICITY":0.00021737,"INCLINATION":86.3975,"RA_OF_ASC_NODE":35.1435,"ARG_OF_PERICENTER":86.4602,"MEAN_ANOMALY":273.6843,"EPHEMERIS_TYPE":0,"CLASSIFICATION_TYPE":"U","NORAD_CAT_ID":43924,"ELEMENT_SET_NO":999,"REV_AT_EPOCH":37474,"BSTAR":0.00012475836,"MEAN_MOTION_DOT":3.69e-6,"MEAN_MOTION_DDOT":0},{"OBJECT_NAME":"FENGYUN 1C DEB","OBJECT_ID":"1999-025EQ","EPOCH":"2026-03-09T14:11:47.076576","MEAN_MOTION":14.19153894,"ECCENTRICITY":0.008556,"INCLINATION":98.6412,"RA_OF_ASC_NODE":113.336,"ARG_OF_PERICENTER":54.1938,"MEAN_ANOMALY":98.1855,"EPHEMERIS_TYPE":0,"CLASSIFICATION_TYPE":"U","NORAD_CAT_ID":29846,"ELEMENT_SET_NO":999,"REV_AT_EPOCH":99091,"BSTAR":0.00014498,"MEAN_MOTION_DOT":2.72e-6,"MEAN_MOTION_DDOT":0}]
